     2.11           N: GPS NAV DATA                         RINEX VERSION / TYPE
teqc  2019Feb25                         20221121 12:27:59UTCPGM / RUN BY / DATE
OSX ker:10.11.6|Core i5|gcc 4.3 -m64|OSX ker:10.10+|=+      COMMENT
    1.0245D-08  7.4506D-09 -5.9605D-08 -5.9605D-08          ION ALPHA
    8.8064D+04  0.0000D+00 -1.9661D+05 -6.5536D+04          ION BETA
   -2.793967723846D-09-1.598721155460D-14   147456     1552 DELTA-UTC: A0,A1,T,W
                                                            END OF HEADER
 4 09 10  4  0  0  0.0-2.944981679320D-04-1.762145984685D-11 0.000000000000D+00
    2.700000000000D+01 9.537500000000D+01 4.946277460882D-09 1.345203805481D+00
    5.211681127548D-06 8.879191009328D-03 1.114793121815D-05 5.153559803009D+03
    0.000000000000D+00-1.490116119385D-08-2.771841965498D+00 1.583248376846D-07
    9.403551686530D-01 1.536250000000D+02 5.320602845036D-01-8.382134863848D-09
    2.946551307118D-10 1.000000000000D+00 1.552000000000D+03 0.000000000000D+00
    2.000000000000D+00 0.000000000000D+00-6.053596735001D-09 2.700000000000D+01
   -3.042000000000D+03 4.000000000000D+00
12 09 10  4  0  0  0.0-2.096430398524D-04 5.570655048359D-12 0.000000000000D+00
    4.700000000000D+01 1.103125000000D+01 4.742697552390D-09-3.130744852707D+00
    5.662441253662D-07 3.070991719142D-03 3.311783075333D-06 5.153552789688D+03
    0.000000000000D+00-7.450580596924D-09 1.419661235983D+00 5.774199962616D-08
    9.677930530367D-01 3.160000000000D+02-5.842152041197D-01-8.300345742717D-09
    1.385772008681D-10 1.000000000000D+00 1.552000000000D+03 0.000000000000D+00
    2.000000000000D+00 0.000000000000D+00-1.164153218269D-08 4.700000000000D+01
   -3.042000000000D+03 4.000000000000D+00
13 09 10  4  0  0  0.0 3.053336404264D-04 3.410605131648D-13 0.000000000000D+00
    3.000000000000D+01-9.650000000000D+01 3.645151835205D-09-8.696553909920D-01
   -5.068257451057D-06 3.965603653342D-03 1.075677573681D-05 5.153648897171D+03
    0.000000000000D+00-2.421438694000D-08-6.191735495094D-01 2.607703208923D-08
    9.944623100212D-01 1.888125000000D+02 1.662199732194D+00-7.718892951446D-09
   -4.964492505326D-10 1.000000000000D+00 1.552000000000D+03 0.000000000000D+00
    2.000000000000D+00 0.000000000000D+00-1.117587089539D-08 3.000000000000D+01
   -3.042000000000D+03 4.000000000000D+00
20 09 10  4  0  0  0.0 7.081218063831D-05-9.094947017729D-13 0.000000000000D+00
    7.300000000000D+01 1.537500000000D+01 5.589161382435D-09 1.111247091010D+00
    7.357448339462D-07 3.861734759994D-03 1.573935151100D-06 5.153758852005D+03
    0.000000000000D+00-1.359730958939D-07-1.755232973162D+00 1.490116119385D-08
    9.398965292060D-01 3.373437500000D+02 1.315067148842D+00-8.937157982789D-09
    2.928693420408D-11 1.000000000000D+00 1.552000000000D+03 0.000000000000D+00
    2.000000000000D+00 0.000000000000D+00-7.450580596924D-09 7.300000000000D+01
   -3.042000000000D+03 4.000000000000D+00
23 09 10  4  0  0  0.0 3.879191353917D-04-4.547473508865D-13 0.000000000000D+00
    5.500000000000D+01-1.021562500000D+02 4.151601502295D-09-1.571539021045D+00
   -5.420297384262D-06 6.395330652595D-03 1.027807593346D-05 5.153772567749D+03
    0.000000000000D+00-7.450580596924D-09-6.742509083881D-01-6.519258022308D-08
    9.697643278339D-01 1.847812500000D+02 2.983415743698D+00-7.949616847736D-09
   -4.350181202508D-10 1.000000000000D+00 1.552000000000D+03 0.000000000000D+00
    2.000000000000D+00 0.000000000000D+00-2.002343535423D-08 5.500000000000D+01
   -3.042000000000D+03 4.000000000000D+00
30 09 10  4  0  0  0.0 1.819897443056D-04 3.069544618484D-12 0.000000000000D+00
    8.000000000000D+00 1.428125000000D+01 5.158786312728D-09 6.351781410105D-01
    5.811452865601D-07 1.193053822499D-02 3.613531589508D-06 5.153657608032D+03
    0.000000000000D+00-1.266598701477D-07 1.369797385056D+00-3.539025783539D-08
    9.529433256403D-01 3.064062500000D+02 1.459495450758D+00-8.749650172336D-09
    9.571827276455D-11 1.000000000000D+00 1.552000000000D+03 0.000000000000D+00
    2.000000000000D+00 0.000000000000D+00-7.916241884232D-09 8.000000000000D+00
   -3.042000000000D+03 4.000000000000D+00
31 09 10  4  0  0  0.0-6.350409239531D-05 5.684341886081D-13 0.000000000000D+00
    9.800000000000D+01 4.731250000000D+01 3.921234763739D-09 2.919728026438D+00
    2.605840563774D-06 7.073567016050D-03 1.112185418606D-05 5.153799882889D+03
    0.000000000000D+00-1.862645149231D-09 3.653333206392D-01 1.490116119385D-08
    9.745363841635D-01 1.727812500000D+02-1.139563349445D+00-7.578172804173D-09
    4.118028675281D-10 1.000000000000D+00 1.552000000000D+03 0.000000000000D+00
    2.000000000000D+00 0.000000000000D+00-1.303851604462D-08 9.800000000000D+01
   -3.042000000000D+03 4.000000000000D+00
32 09 10  4  0  0  0.0 1.846887171268D-04-7.275957614183D-12 0.000000000000D+00
    4.500000000000D+01-8.062500000000D+00 4.903418532778D-09-2.437961924843D+00
   -2.216547727585D-07 1.326248317491D-02 1.573935151100D-06 5.153699382782D+03
    0.000000000000D+00-9.313225746155D-09-1.642859213486D+00 1.788139343262D-07
    9.618563047188D-01 3.470000000000D+02-1.109367688931D+00-8.346776248163D-09
   -7.286017777600D-11 1.000000000000D+00 1.552000000000D+03 0.000000000000D+00
    2.000000000000D+00 0.000000000000D+00-3.259629011154D-09 4.500000000000D+01
   -3.042000000000D+03 4.000000000000D+00
